Agency Sponsor,Title,Short Description,Start Date/Time,End Date/Time,State,Details,Contact Name,Phone,Contact Email,Web Link,Calendar Link,Map Location,City,Audience Type,Registration Deadline
,Business Expo West,"Meet Business Leaders, Renowned Experts, and Make Connections to 
Grow your business at Business Expo West. ",04/05/2018 12:00:00 AM,,,,,,,https://besthq.net/business-expo-west,,"Tektronix, Bldg. 38 13600 SW Terman Rd
Beaverton, OR 97005", Beaverton,,
Human Services Department,Oregon Employer Council BOLI Lunch and Learn,"2 BOLI seminars and Oregon Employer Council Luncheon:
10:00 AM Harassment Seminar
12:00 PM Lunch and OEC Lane Discussion
1:00 PM Oregon's Equal Pay Law
2.0 HRCI and SHRM credits pending",03/01/2018 10:00:00 AM,03/01/2018 03:00:00 PM,Oregon,"The Lunch & Learn will include presentations on two extremely topical HR topics presented by Bureau of Labor and Industries (BOLI), full details below.  You will also learn about the Oregon Employer Council, the benefits a local OEC chapter can bring, and how to get involved in rebuilding the Lane County OEC chapter.  Membership to OEC is free, and by joining and supporting your local council, you can make a difference in local employment and training issues, and create a vital link between business, education, government, and the workforce. 

WorkSource Oregon Lane
2510 Oakmont Way
Eugene, OR 97401
",Greg Ivers,503-947-5403,gregory.e.ivers@state.or.us,https://laneoecmarch2018.eventbrite.com,,"2510 Oakmont Way
Eugene, OR 97401", Eugene,Business Owners,02/26/2018 04:00:00 PM
Secretary of State,La Grande basics notary public seminar,Free training to become a notary,05/30/2018 09:00:00 AM,05/30/2018 12:00:00 PM,Oregon,"Brush up your notary knowledge and get the answers to your questions by attending a seminar for current and future notaries public. This seminar is a comprehensive and thorough examination of notary basics: purpose, responsibilities and liabilities of a notary; how to notarize; notary certificates and the notary journal. What's more, this is your chance to talk to the state agency that regulates notaries, and participate in lively discussions about procedures, practices, and notary law. ",,,,http://notsem.sos.state.or.us,,,,,
Secretary of State,Coos Bay advanced notary public seminar,,,,,,,,,,,,,,
Transportation Department,Meet The Primes Speednetworking Event,DBE Subcontractors are invited to this Opportunity to Build Relationships with A&E Prime Contractors. ,03/06/2018 09:00:00 AM,03/06/2018 12:00:00 PM,Oregon,"OREGON DEPARTMENT OF TRANSPORTATION
ASHLAND CONFERENCE ROOM
3930 FAIRVIEW INDUSTRIAL DRIVE SE
SALEM, OREGON  97302 
 
•	One-On-One interview sessions with A&E Prime Contractors
•	List of upcoming opportunities, contact information, typical clients and types of project the primes normally target.
    
This event is designed to help A&E primes build relationships with qualified DBE subs that will help the primes meet established project goals. 

DBE firms registering will be screened and expected to bring firm descriptions, services provided, references and contact information, ODOT certifications, insurance capabilities and projects their firm has completed. 

Target Subconsultant Specialties: 
1.	Geotechnical
2.	Survey
3.	Public Involvement
4.	Environmental Consulting
5.	Engineering
6.	Civil Engineering
7.	Drafting
8.	Endangered Species Act (ESA) Documentation
9.	Archeological, Historical & Cultural
10.	Right-Of-Way
11.	Landscape Architecture, Streetscape & Urban Design
12.	Quality Control (independent checks)
13.	Construction Inspection
14.	Traffic Studies & Design
15.	Urban & Streetscape Design
",Codi Trudell,503-986-4355,OCRPrograms@odot.state.or.us,Eventbrite Registration Link (https://www.eventbrite.com/e/odot-acec-meet-the-primes-speed-networking-event-tickets-43012234752),,, Salem,Business Owners,03/05/2018 05:00:00 PM
,Get Certified / Meet the Primes,"Sponsored by Skanska

Join us on March 9th, 2018 to meet public agencies with unique opportunities for certified firms.

Register on Eventbrite.
",03/09/2018 09:30:00 AM,03/09/2018 01:00:00 PM,,"•Prequalify with prime contractors to maximize opportunities available for certified firms

•Prepare for current and future projects

•Understand how to streamline your state certification

•Maximize state certifcations through unique public contracts

•Understand how state certification helps you grow your business
",,,info.orcpp@oregon.gov,Eventbrite page (https://www.eventbrite.com/e/get-certified-meet-the-primes-registration-42995395385),,"731 North Hayden Meadows Drive
Portland, Oregon 97217",,,
Consumer & Business Services Department,"OSHA Training Course, Spanish - Day 1",This course is intended to provide construction workers general awareness on recognizing and preventing hazards on a construction site.,03/16/2018 01:00:00 PM,03/16/2018 05:00:00 PM,,,Kimberly Moore ,503-288-1211,kimberly@mcip-pdx.org,http://www.mcip-pdx.org/,,"2808 NE MLK Jr. Blvd, Suite D
Portland, OR 97212", Portland,,
Consumer & Business Services Department,"10 Hour OSHA Train, Spanish - Day 2",This course is intended to provide construction workers general awareness on recognizing and preventing hazards on a construction site.,03/17/2018 08:00:00 AM,03/17/2018 02:00:00 PM,,,Kimberly Moore ,503-288-1211,kimberly@mcip-pdx.org,http://www.mcip-pdx.org/,,"2808 NE MLK Jr Blvd, Suite D
Portland, Or 97212", Portland,,
Governor's Office,Governor's Marketplace,"Training, information and resources for entrepreneurs to contract with government. Meet purchasing agents who want to buy what you're selling.",03/21/2018 12:30:00 PM,03/22/2018 04:00:00 PM,Oregon,"Small Business training, information and resources, including networking opportunities with purchasing agents.",Eloisa Milles,503-378-4582,Eloisa.Miller@oregon.gov,https://www.eventbrite.com/e/2018-governors-marketplace-conference-two-day-event-registration-35799205387,,"200 Commercial St. SE
Salem, OR 97301", Salem,"Minority, Women, Emerging Small Businesses",03/16/2018 05:00:00 PM
Secretary of State,La Grande advanced notary public seminar,Free advanced training for current notaries ONLY,05/30/2018 01:30:00 PM,05/30/2018 04:40:00 PM,Oregon,"Advanced notary public seminars are appropriate for those who are experienced, commissioned notaries. They do not meet the training qualifications for a notary application and will not help you to pass the exam. These advanced classes discuss employee notary issues, notario and elder abuse fraud, difficult certificates, and journaling witnesses, among other topics.",,,,http://notsem.sos.state.or.us,,,,,
Governor's Office,Governor's Marketplace - Ontario ,Connect to Public Contracting & Business Resources at Governor's Marketplace,04/09/2018 07:30:00 AM,04/09/2018 01:00:00 PM,Oregon,"The Office of Diversity, Equity and Inclusion/Affirmative Action for Governor Kate Brown is delighted to announce this edition of the Governor’s Marketplace to support Oregon small businesses.

We have partnered with the Secretary of State, Department of Administrative Services and the Certification Office for Business Inclusion and Diversity, to bring opportunities for businesses to meet directly with procurement professionals from state, federal, private and non-profit organizations who will share tips, tools, resources and strategies to aid in business growth, more successfully navigate contracting processes and nurture ongoing relationships.

A warm thank you to Treasure Valley Community College, Small Business Development Center for hosting our day. Also, a thank you to our sponsors who bring this edition at no cost to you!

All businesses within the state of Oregon are welcome. These events are held in different parts of the state solely to make the resources available to all. 
",Eloisa Miller,,eloisa.miller@oregon.gov,Eventbrite registration (https://www.eventbrite.com/e/connect-to-public-contracting-business-resources-at-governors-marketplace-southeast-oregon-edition-tickets-43906548669#tickets),,, Ontario,,
Governor's Office,Governor's Marketplace,Connect to Public Contracting & Business Resources at Governor's Marketplace,04/10/2018 07:30:00 AM,03/10/2018 01:00:00 PM,Oregon,"2018 Governor’s Marketplace | Northeast Oregon Edition (Union, Grant, Morrow, Wheeler Counties)

The Office of Diversity, Equity and Inclusion/Affirmative Action for Governor Kate Brown is delighted to announce this edition of the Governor’s Marketplace to support Oregon small businesses.

We have partnered with the Secretary of State, Department of Administrative Services and the Certification Office for Business Inclusion and Diversity, to bring opportunities for businesses to meet directly with procurement professionals from state, federal, private and non-profit organizations who will share tips, tools, resources and strategies to aid in business growth, more successfully navigate contracting processes and nurture ongoing relationships.

A warm thank you to Eastern Oregon University, Small Business Development Center for hosting our day. Also, a thank you to our sponsors who bring this edition at no cost to you!

All businesses within the state of Oregon are welcome. These events are held in different parts of the state solely to make the resources available to all. 

NEW! Earn CE Credits. Through our partnership with CCB, Contractors can now earn up to 4 CE credits for attending this event. If you only attend certain portions, your earned CE credits will reflect the hours of participation. ",Eloisa Miller,,eloisa.miller@oregon.gov,Eventbrite Registration (https://www.eventbrite.com/e/connect-to-public-contracting-business-resources-at-governors-marketplace-northeast-oregon-edition-tickets-43905201640#),,, La Grande,,
Governor's Office,Governor's Marketplace,Connect to Public Contracting & Business Resources at Governor's Marketplace,04/11/2018 07:30:00 AM,04/11/2018 01:00:00 AM,,"2018 Governor’s Marketplace | Northeast Oregon Edition (Baker, Umatilla, Wallowa Counties)

Date: April 11, 2018

Time: 7:30am to 1:00pm (Check in begins at 7:00am)

Location: Blue Mountain Community College, Morrow Hall Room M-100, 2411 NW Carden Avenue, Pendleton OR 97801

NEW! Earn CE Credits. Through our partnership with CCB, Contractors can now earn up to 4 CE credits for attending this event. If you only attend certain portions, your earned CE credits will reflect the hours of participation. 

The Office of Diversity, Equity and Inclusion/Affirmative Action for Governor Kate Brown is delighted to announce this edition of the Governor’s Marketplace to support Oregon small businesses.

We have partnered with the Secretary of State, Department of Administrative Services and the Certification Office for Business Inclusion and Diversity, to bring opportunities for businesses to meet directly with procurement professionals from state, federal, private and non-profit organizations who will share tips, tools, resources and strategies to aid in business growth, more successfully navigate contracting processes and nurture ongoing relationships.

A warm thank you to Blue Mountain Community College, Small Business Development Center for hosting our day. Also, a thank you to our sponsors who bring this edition at no cost to you!

All businesses within the state of Oregon are welcome. These events are held in different parts of the state solely to make the resources available to all. 

NEW! Earn CE Credits. Through our partnership with CCB, Contractors can now earn up to 4 CE credits for attending this event. If you only attend certain portions, your earned CE credits will reflect the hours of participation.",Eloisa Miller,,eloisa.miller@oregon.gov,Eventbrite Registration (https://www.eventbrite.com/e/connect-to-public-contracting-business-resources-at-governors-marketplace-northeast-oregon-edition-tickets-43894825605#),,"2411 NW Carden Avenue
Pendleton, Or 97801", Pendleton,Small Businesses,
Governor's Office,Governor's Marketplace,Connect to Public Contracting & Business Resources at Governor's Marketplace,04/12/2018 07:30:00 AM,04/12/2018 01:00:00 AM,,"2018 Governor’s Marketplace | Northeast Oregon Edition (Boardman, Port of Morrow)

The Office of Diversity, Equity and Inclusion/Affirmative Action for Governor Kate Brown is delighted to announce this edition of the Governor’s Marketplace to support Oregon small businesses.

We have partnered with the Secretary of State, Department of Administrative Services and the Certification Office for Business Inclusion and Diversity, to bring opportunities for businesses to meet directly with procurement professionals from state, federal, private and non-profit organizations who will share tips, tools, resources and strategies to aid in business growth, more successfully navigate contracting processes and nurture ongoing relationships.

A warm thank you to Blue Mountain CC, Workforce Training Center for hosting our day. Also, a thank you to our sponsors who bring this edition at no cost to you!

All businesses within the state of Oregon are welcome. These events are held in different parts of the state solely to make the resources available to all. 

Date: April 12, 2018

Time: 7:30am to 1:00pm (Check in begins at 7:00am)

UPDATE on Location: Blue Mountain Community College, Workforce Training Center, 251 Olson Rd., Boardman OR 97818

NEW! Earn CE Credits. Through our partnership with CCB, Contractors can now earn up to 4 CE credits for attending this event. If you only attend certain portions, your earned CE credits will reflect the hours of participation.
",Eloisa Miller,,eloisa.miller@oregon.gov,Eventbrite Registration (https://www.eventbrite.com/e/connect-to-public-contracting-business-resources-at-governors-marketplace-northeast-oregon-edition-tickets-44620103932#),,"251 Olson Rd
Boardman, Or 97818", Boardman,Small Businesses,
Governor's Office,Governor's Marketplace,Connect to Public Contracting & Business Resources at Governor's Marketplace,04/23/2018 07:30:00 AM,04/23/2018 01:00:00 AM,Oregon,"2018 Governor’s Marketplace | Portland Metro Area Edition (Clackamas County)

The Office of Diversity, Equity and Inclusion/Affirmative Action for Governor Kate Brown is delighted to announce this edition of the Governor’s Marketplace to support Oregon small businesses.

We have partnered with the Secretary of State, Department of Administrative Services and the Certification Office for Business Inclusion and Diversity, to bring opportunities for businesses to meet directly with procurement professionals from state, federal, private and non-profit organizations who will share tips, tools, resources and strategies to aid in business growth, more successfully navigate contracting processes and nurture ongoing relationships.

A warm thank you to Clackamas Community College, Small Business Development Center for hosting our day. Also, a thank you to our sponsors who bring this edition at no cost to you!

All businesses within the state of Oregon are welcome. These events are held in different parts of the state solely to make the resources available to all. 

Date: April 23, 2018

Time: 7:30am to 3:00pm (Check in begins at 7:00am)

Location: Clackamas Community College, 7726 SE Harmony Rd., Milwaukie OR 97222 (Harmony West Building)

NEW! Earn CE Credits. Through our partnership with CCB, Contractors can now earn up to 4 CE credits for attending this event. If you only attend certain portions, your earned CE credits will reflect the hours of participation. 

***PLEASE NOTE: NEW AGENDA TO INCLUDE AN ADDITIONAL SESSION AND EXTENDED HOURS TO 3PM.*** 
",Eloisa Miller,,eloisa.miller@oregon.gov,Eventbrite Registration (https://www.eventbrite.com/e/connect-to-public-contracting-business-resources-at-governors-marketplace-portland-metro-area-tickets-44686951876),,"77726 SE Harmony Road
Milwaukie, Or 97222", Milwaukie,,
Secretary of State,Baker City  basics notary public seminar,Free training to become a notary,06/07/2018 09:00:00 AM,06/07/2018 12:00:00 PM,Oregon,"Brush up your notary knowledge and get the answers to your questions by attending a seminar for current and future notaries public. This seminar is a comprehensive and thorough examination of notary basics: purpose, responsibilities and liabilities of a notary; how to notarize; notary certificates and the notary journal. What's more, this is your chance to talk to the state agency that regulates notaries, and participate in lively discussions about procedures, practices, and notary law. ",,,,http://notsem.sos.state.or.us,,,,,
Secretary of State,Forest Grove basics notary public seminar,Free training to become a notary,08/02/2018 01:00:00 PM,08/02/2018 04:00:00 PM,Oregon,"Brush up your notary knowledge and get the answers to your questions by attending a seminar for current and future notaries public. This seminar is a comprehensive and thorough examination of notary basics: purpose, responsibilities and liabilities of a notary; how to notarize; notary certificates and the notary journal. What's more, this is your chance to talk to the state agency that regulates notaries, and participate in lively discussions about procedures, practices, and notary law.",,,,http://notsem.sos.state.or.us,,,,,
Governor's Office,Governor's Marketplace,Connect to Public Contracting & Business Resources at Governor's Marketplace,04/25/2018 07:30:00 AM,04/25/2018 01:00:00 AM,,"2018 Governor’s Marketplace | Portland Metro Area Edition (East Multnomah)

The Office of Diversity, Equity and Inclusion/Affirmative Action for Governor Kate Brown is delighted to announce this edition of the Governor’s Marketplace to support Oregon small businesses.

We have partnered with the Secretary of State, Department of Administrative Services and the Certification Office for Business Inclusion and Diversity, to bring opportunities for businesses to meet directly with procurement professionals from state, federal, private and non-profit organizations who will share tips, tools, resources and strategies to aid in business growth, more successfully navigate contracting processes and nurture ongoing relationships.

A warm thank you to Mt. Hood Community College SBDC for hosting our day. Also, a thank you to our sponsors who bring this edition at no cost to you!

All businesses within the state of Oregon are welcome. These events are held in different parts of the state solely to make the resources available to all. 

Date: April 25, 2018

Time: 7:30am to 1:00pm (Check in begins at 7:00am)

Location: Mt. Hood Community College, 26000 SE Stark Street, Gresham OR 97030

NEW! Earn CE Credits. Through our partnership with CCB, Contractors can now earn up to 4 CE credits for attending this event. If you only attend certain portions, your earned CE credits will reflect the hours of participation. 
",Eloisa Miller,,eloisa.miller@oregon.gov,Eventbrite Registration (https://www.eventbrite.com/e/connect-to-public-contracting-business-resources-at-governors-marketplace-portland-metro-area-tickets-44682074287),,"26000 SE Stark
Gresham, OR 97030", Gresham,,
Secretary of State,Central Point advanced notary public seminar,Free advanced training for current notaries ONLY,05/17/2018 01:00:00 PM,05/17/2018 04:00:00 PM,Oregon,"Advanced notary public seminars are appropriate for those who are experienced, commissioned notaries. They do not meet the training qualifications for a notary application and will not help you to pass the exam. These advanced classes discuss employee notary issues, notario and elder abuse fraud, difficult certificates, and journaling witnesses, among other topics.",,,,http://notsem.sos.state.or.us,,,,,
Governor's Office,Governor's Marketplace,Connect to Public Contracting & Business Resources at Governor's Marketplace,05/22/2018 12:00:00 AM,05/22/2018 12:00:00 AM,Oregon,"2018 Governor’s Marketplace | Southern Oregon Edition (Curry County)

The Office of Diversity, Equity and Inclusion/Affirmative Action for Governor Kate Brown is delighted to announce this edition of the Governor’s Marketplace to support Oregon small businesses.

We have partnered with the Secretary of State, Department of Administrative Services and the Certification Office for Business Inclusion and Diversity, to bring opportunities for businesses to meet directly with procurement professionals from state, federal, private and non-profit organizations who will share tips, tools, resources and strategies to aid in business growth, more successfully navigate contracting processes and nurture ongoing relationships.

A warm thank you to Blue Mountain Community College, Small Business Development Center for hosting our day. Also, a thank you to our sponsors who bring this edition at no cost to you!

All businesses within the state of Oregon are welcome. These events are held in different parts of the state solely to make the resources available to all.

Location To Be Determined",Eloisa Miller,,eloisa.miller@oregon.gov,,,TBD,,Small Businesses,
Governor's Office,Governor's Marketplace,Connect to Public Contracting & Business Resources at Governor's Marketplace,05/23/2018 07:30:00 AM,05/23/2018 01:00:00 AM,Oregon,"2018 Governor’s Marketplace | Southern Oregon Edition (Josephine County)

The Office of Diversity, Equity and Inclusion/Affirmative Action for Governor Kate Brown is delighted to announce this edition of the Governor’s Marketplace to support Oregon small businesses.

We have partnered with the Secretary of State, Department of Administrative Services and the Certification Office for Business Inclusion and Diversity, to bring opportunities for businesses to meet directly with procurement professionals from state, federal, private and non-profit organizations who will share tips, tools, resources and strategies to aid in business growth, more successfully navigate contracting processes and nurture ongoing relationships.

A warm thank you to Oregon SBDC and Taprock Events Center for hosting our day. Also, a thank you to our sponsors who bring this edition at no cost to you!

All businesses within the state of Oregon are welcome. These events are held in different parts of the state solely to make the resources available to all. 





Date: May 23, 2018

Time: 7:30am to 1:00pm (Check in begins at 7:00am)

Location: Taprock Events Center - 940 SE 7th Street, Grants Pass OR 97526

NEW! Earn CE Credits. Through our partnership with CCB, Contractors can now earn up to 4 CE credits for attending this event. If you only attend certain portions, your earned CE credits will reflect the hours of participation. 
",Eloisa Miller,,eloisa.miller@oregon.gov,Eventbrite Registration (https://www.eventbrite.com/e/connect-to-public-contracting-business-resources-at-governors-marketplace-southern-oregon-edition-tickets-44656590063),,"940 SE 7th Street
Grants Pass, OR 97526", Grants Pass,,
Secretary of State,Pendleton basics notary public seminar,Free training to become a notary,05/23/2018 09:00:00 AM,05/23/2018 12:00:00 PM,Oregon,"Brush up your notary knowledge and get the answers to your questions by attending a seminar for current and future notaries public. This seminar is a comprehensive and thorough examination of notary basics: purpose, responsibilities and liabilities of a notary; how to notarize; notary certificates and the notary journal. What's more, this is your chance to talk to the state agency that regulates notaries, and participate in lively discussions about procedures, practices, and notary law. ",,,,http://notsem.sos.state.or.us,,,,,
Secretary of State,Ontario advanced notary public seminar,Free advanced training for current notaries ONLY,05/24/2018 09:00:00 AM,05/24/2018 12:00:00 PM,Oregon,"Advanced notary public seminars are appropriate for those who are experienced, commissioned notaries. They do not meet the training qualifications for a notary application and will not help you to pass the exam. These advanced classes discuss employee notary issues, notario and elder abuse fraud, difficult certificates, and journaling witnesses, among other topics.",,,,http://notsem.sos.state.or.us,,,,,
Governor's Office,Governor's Marketplace,Connect to Public Contracting & Business Resources at Governor's Marketplace,06/11/2018 07:30:00 AM,06/11/2018 01:00:00 AM,,"2018 Governor’s Marketplace | Southcoast Edtion (Western Douglas, Coos & Curry Counties)

The Office of Diversity, Equity and Inclusion/Affirmative Action for Governor Kate Brown is delighted to announce this edition of the Governor’s Marketplace to support Oregon small businesses.

We have partnered with the Secretary of State, Department of Administrative Services and the Certification Office for Business Inclusion and Diversity, to bring opportunities for businesses to meet directly with procurement professionals from state, federal, private and non-profit organizations who will share tips, tools, resources and strategies to aid in business growth, more successfully navigate contracting processes and nurture ongoing relationships.

A warm thank you to Oregon SBDC and The Mill Casino for hosting our day. Also, a thank you to our sponsors who bring this edition at no cost to you!

All businesses within the state of Oregon are welcome. These events are held in different parts of the state solely to make the resources available to all. 





Date: June 11, 2018

Time: 7:30am to 1:00pm (Check in begins at 7:00am)

Location: The Mill Casino, 3201 Tremont Street, Northbend OR 97459

NEW! Earn CE Credits. Through our partnership with CCB, Contractors can now earn up to 4 CE credits for attending this event. If you only attend certain portions, your earned CE credits will reflect the hours of participation. 
",Eloisa Miller,,eloisa.miller@oregon.gov,Eventbrite Registration (https://www.eventbrite.com/e/connect-to-public-contracting-business-resources-at-governors-marketplace-southcoast-edition-tickets-44685776360),,"3201 Tremont Street
Northbend, OR 97459", North Bend,,
Governor's Office,Governor's Marketplace,Connect to Public Contracting & Business Resources at Governor's Marketplace,06/12/2018 07:30:00 AM,06/12/2018 01:00:00 AM,,"All businesses within the state of Oregon are welcome. These events are held in different parts of the state solely to make the resources available to all.





Date: June 12, 2018

Time: 7:30am to 1:00pm (Check in begins at 7:00am)

Location: Clatsop Community College (Columbia Hall, Room 219), 1651 Lexington Avenue, Astoria OR 97103

NEW! Earn CE Credits. Through our partnership with CCB, Contractors can now earn up to 4 CE credits for attending this event. If you only attend certain portions, your earned CE credits will reflect the hours of participation.",Eloisa Miller,,eloisa.miller@oregon.gov,Eventbrite Registration (https://www.eventbrite.com/e/connect-to-public-contracting-business-resources-at-governors-marketplace-northcoast-edition-tickets-44690444322?aff=es2),,"1651 Lexington Ave
Astoria, OR 97103", Astoria,Small Businesses,
Secretary of State,Milwaukie basics notary public seminar,Free training to become a notary,06/12/2018 09:00:00 AM,06/12/2018 12:00:00 PM,Oregon,"Brush up your notary knowledge and get the answers to your questions by attending a seminar for current and future notaries public. This seminar is a comprehensive and thorough examination of notary basics: purpose, responsibilities and liabilities of a notary; how to notarize; notary certificates and the notary journal. What's more, this is your chance to talk to the state agency that regulates notaries, and participate in lively discussions about procedures, practices, and notary law.",,,,http://notsem.sos.state.or.us,,,,,
Secretary of State,Milwaukie advanced notary public seminar,Free advanced training for current notaries ONLY,06/12/2018 01:00:00 PM,06/12/2018 04:00:00 PM,Oregon,"Advanced notary public seminars are appropriate for those who are experienced, commissioned notaries. They do not meet the training qualifications for a notary application and will not help you to pass the exam. These advanced classes discuss employee notary issues, notario and elder abuse fraud, difficult certificates, and journaling witnesses, among other topics.",,,,http://notsem.sos.state.or.us,,,,,
Governor's Office,Governor's Marketplace,Connect to Public Contracting & Business Resources at Governor's Marketplace,06/13/2018 07:30:00 AM,06/13/2018 01:00:00 PM,OR,"The Office of Diversity, Equity and Inclusion/Affirmative Action for Governor Kate Brown is delighted to announce this edition of the Governor’s Marketplace to support Oregon small businesses.

Date: June 13, 2018

Time: 7:30am to 1:00pm (Check in begins at 7:00am)

Location: Tillamook Bay Community College, Partners for Rural Innovation Center, 4506 Third Street, Tillamook OR 97141

NEW! Earn CE Credits. Through our partnership with CCB, Contractors can now earn up to 4 CE credits for attending this event. If you only attend certain portions, your earned CE credits will reflect the hours of participation. 
",Eloisa Miller,,eloisa.miller@oregon.gov,Eventbrite Registration (https://www.eventbrite.com/e/connect-to-public-contracting-business-resources-at-governors-marketplace-northcoast-edition-tickets-44687259797),,"4506 Third Street
Tillamook, OR 97141", Tillamook,,
Secretary of State,Hood River basics notary public seminar,Free training to become a notary,06/13/2018 09:00:00 AM,06/13/2018 12:00:00 PM,Oregon,"Brush up your notary knowledge and get the answers to your questions by attending a seminar for current and future notaries public. This seminar is a comprehensive and thorough examination of notary basics: purpose, responsibilities and liabilities of a notary; how to notarize; notary certificates and the notary journal. What's more, this is your chance to talk to the state agency that regulates notaries, and participate in lively discussions about procedures, practices, and notary law. ",,,,http://notsem.sos.state.or.us,,,,,
Secretary of State,Pendleton advanced notary public seminar,Free advanced training for current notaries ONLY,08/14/2018 09:00:00 AM,08/14/2018 12:00:00 PM,Oregon,"Advanced notary public seminars are appropriate for those who are experienced, commissioned notaries. They do not meet the training qualifications for a notary application and will not help you to pass the exam. These advanced classes discuss employee notary issues, notario and elder abuse fraud, difficult certificates, and journaling witnesses, among other topics.",,,,http://notsem.sos.state.or.us,,,,,
Secretary of State,Ontario basics notary public seminar,Free training to become a notary,08/15/2018 09:00:00 AM,08/15/2018 12:00:00 PM,Oregon,"Brush up your notary knowledge and get the answers to your questions by attending a seminar for current and future notaries public. This seminar is a comprehensive and thorough examination of notary basics: purpose, responsibilities and liabilities of a notary; how to notarize; notary certificates and the notary journal. What's more, this is your chance to talk to the state agency that regulates notaries, and participate in lively discussions about procedures, practices, and notary law.",,,,http://notsem.sos.state.or.us,,,,,
Governor's Office,Governor's Marketplace,Connect to Public Contracting & Business Resources at Governor's Marketplace,06/14/2018 07:30:00 AM,06/14/2018 01:00:00 PM,OR,"2018 Governor’s Marketplace | Northcoast Edition (Tillamook County)

We have partnered with the Secretary of State, Department of Administrative Services and the Certification Office for Business Inclusion and Diversity, to bring opportunities for businesses to meet directly with procurement professionals from state, federal, private and non-profit organizations who will share tips, tools, resources and strategies to aid in business growth, more successfully navigate contracting processes and nurture ongoing relationships.

Date: June 14, 2018

Time: 7:30am to 1:00pm (Check in begins at 7:00am)

Location: Oregon Coast Community College, 400 SE College Way, Newport OR 97366

NEW! Earn CE Credits. Through our partnership with CCB, Contractors can now earn up to 4 CE credits for attending this event. If you only attend certain portions, your earned CE credits will reflect the hours of participation. 
",Eloisa Miller,,eloisa.miller@oregon.gov,Eventbrite Registration (https://www.eventbrite.com/e/connect-to-public-contracting-business-resources-at-governors-marketplace-northcoast-edition-tickets-44689494481),,"400 SE College Way
Newport, OR 97366", Newport,,
Secretary of State,Canby advanced notary public seminar,Free advanced training for current notaries ONLY,06/14/2018 09:00:00 AM,06/14/2018 12:00:00 PM,Oregon,"Advanced notary public seminars are appropriate for those who are experienced, commissioned notaries. They do not meet the training qualifications for a notary application and will not help you to pass the exam. These advanced classes discuss employee notary issues, notario and elder abuse fraud, difficult certificates, and journaling witnesses, among other topics.",,,,http://notsem.sos.state.or.us,,,,,
Secretary of State,Forest Grove advanced notary public seminar,Free advanced training for current notaries ONLY,06/19/2018 09:00:00 AM,06/19/2018 12:00:00 PM,Oregon,"Advanced notary public seminars are appropriate for those who are experienced, commissioned notaries. They do not meet the training qualifications for a notary application and will not help you to pass the exam. These advanced classes discuss employee notary issues, notario and elder abuse fraud, difficult certificates, and journaling witnesses, among other topics.",,,,http://notsem.sos.state.or.us,,,,,
Secretary of State,Monmouth advanced notary public seminar,Free advanced training for current notaries ONLY,06/21/2018 09:00:00 AM,06/21/2018 12:00:00 PM,Oregon,"Advanced notary public seminars are appropriate for those who are experienced, commissioned notaries. They do not meet the training qualifications for a notary application and will not help you to pass the exam. These advanced classes discuss employee notary issues, notario and elder abuse fraud, difficult certificates, and journaling witnesses, among other topics.",,,,http://notsem.sos.state.or.us,,,,,
Secretary of State,Burns advanced notary public seminar,Free advanced training for current notaries ONLY,06/26/2018 09:00:00 AM,06/26/2018 12:00:00 PM,Oregon,"Advanced notary public seminars are appropriate for those who are experienced, commissioned notaries. They do not meet the training qualifications for a notary application and will not help you to pass the exam. These advanced classes discuss employee notary issues, notario and elder abuse fraud, difficult certificates, and journaling witnesses, among other topics.",,,,http://notsem.sos.state.or.us,,,,,
Secretary of State,The Dalles advanced notary public seminar,Free advanced training for current notaries ONLY,06/28/2018 09:00:00 AM,06/28/2018 12:00:00 PM,Oregon,"Advanced notary public seminars are appropriate for those who are experienced, commissioned notaries. They do not meet the training qualifications for a notary application and will not help you to pass the exam. These advanced classes discuss employee notary issues, notario and elder abuse fraud, difficult certificates, and journaling witnesses, among other topics.",,,,http://notsem.sos.state.or.us,,,,,
Secretary of State,Eugene basics notary seminar,Free training to become a notary,07/11/2018 09:00:00 AM,07/11/2018 12:00:00 PM,Oregon,"Brush up your notary knowledge and get the answers to your questions by attending a seminar for current and future notaries public. This seminar is a comprehensive and thorough examination of notary basics: purpose, responsibilities and liabilities of a notary; how to notarize; notary certificates and the notary journal. What's more, this is your chance to talk to the state agency that regulates notaries, and participate in lively discussions about procedures, practices, and notary law.",,,,http://notsem.sos.state.or.us,,,,,
Secretary of State,Portland advanced notary public seminar,Free advanced training for current notaries ONLY,07/25/2018 09:00:00 AM,07/25/2018 12:00:00 PM,Oregon,"Advanced notary public seminars are appropriate for those who are experienced, commissioned notaries. They do not meet the training qualifications for a notary application and will not help you to pass the exam. These advanced classes discuss employee notary issues, notario and elder abuse fraud, difficult certificates, and journaling witnesses, among other topics.",,,,http://notsem.sos.state.or.us,,,,,
Secretary of State,Canby basics notary public seminar,Free training to become a notary,07/26/2018 09:00:00 AM,07/26/2018 12:00:00 PM,Oregon,"Brush up your notary knowledge and get the answers to your questions by attending a seminar for current and future notaries public. This seminar is a comprehensive and thorough examination of notary basics: purpose, responsibilities and liabilities of a notary; how to notarize; notary certificates and the notary journal. What's more, this is your chance to talk to the state agency that regulates notaries, and participate in lively discussions about procedures, practices, and notary law.",,,,http://notsem.sos.state.or.us,,,,,
Secretary of State,Gresham basics notary public seminar,Free training to become a notary,08/01/2018 09:00:00 AM,08/01/2018 12:00:00 PM,Oregon,"Brush up your notary knowledge and get the answers to your questions by attending a seminar for current and future notaries public. This seminar is a comprehensive and thorough examination of notary basics: purpose, responsibilities and liabilities of a notary; how to notarize; notary certificates and the notary journal. What's more, this is your chance to talk to the state agency that regulates notaries, and participate in lively discussions about procedures, practices, and notary law.",,,,http://notsem.sos.state.or.us,,,,,
Secretary of State,Hermiston basics notary public seminar,Free training to become a notary,08/16/2018 09:00:00 AM,08/16/2018 12:00:00 PM,Oregon,"Brush up your notary knowledge and get the answers to your questions by attending a seminar for current and future notaries public. This seminar is a comprehensive and thorough examination of notary basics: purpose, responsibilities and liabilities of a notary; how to notarize; notary certificates and the notary journal. What's more, this is your chance to talk to the state agency that regulates notaries, and participate in lively discussions about procedures, practices, and notary law.",,,,http://notsem.sos.state.or.us,,,,,
Secretary of State,Bend basics notary public seminar,Free training to become a notary,08/22/2018 09:00:00 AM,08/22/2018 12:00:00 PM,Oregon,"Brush up your notary knowledge and get the answers to your questions by attending a seminar for current and future notaries public. This seminar is a comprehensive and thorough examination of notary basics: purpose, responsibilities and liabilities of a notary; how to notarize; notary certificates and the notary journal. What's more, this is your chance to talk to the state agency that regulates notaries, and participate in lively discussions about procedures, practices, and notary law.",,,,http://notsem.sos.state.or.us,,,,,
Secretary of State,Central Point basics notary public seminar,Free training to become a notary,08/23/2018 01:00:00 PM,08/23/2018 04:00:00 PM,Oregon,"Brush up your notary knowledge and get the answers to your questions by attending a seminar for current and future notaries public. This seminar is a comprehensive and thorough examination of notary basics: purpose, responsibilities and liabilities of a notary; how to notarize; notary certificates and the notary journal. What's more, this is your chance to talk to the state agency that regulates notaries, and participate in lively discussions about procedures, practices, and notary law.",,,,http://notsem.sos.state.or.us,,,,,
Secretary of State,Salem advanced notary public seminar,"
Free advanced training for current notaries ONLY
",08/29/2018 09:00:00 AM,08/29/2018 12:00:00 PM,Oregon,"Advanced notary public seminars are appropriate for those who are experienced, commissioned notaries. They do not meet the training qualifications for a notary application and will not help you to pass the exam. These advanced classes discuss employee notary issues, notario and elder abuse fraud, difficult certificates, and journaling witnesses, among other topics.",,,,http://notsem.sos.state.or.us,,,,,
Secretary of State,Beaverton advanced notary public seminar,Free advanced training for current notaries ONLY,08/30/2018 09:00:00 AM,08/30/2018 12:00:00 PM,Oregon,"Advanced notary public seminars are appropriate for those who are experienced, commissioned notaries. They do not meet the training qualifications for a notary application and will not help you to pass the exam. These advanced classes discuss employee notary issues, notario and elder abuse fraud, difficult certificates, and journaling witnesses, among other topics.",,,,,http://notsem.sos.state.or.us,,,,
Secretary of State,Grants Pass advanced notary public seminar,Free advanced training for current notaries ONLY,09/05/2018 09:00:00 AM,09/05/2018 12:00:00 PM,Oregon,"Advanced notary public seminars are appropriate for those who are experienced, commissioned notaries. They do not meet the training qualifications for a notary application and will not help you to pass the exam. These advanced classes discuss employee notary issues, notario and elder abuse fraud, difficult certificates, and journaling witnesses, among other topics.",,,,http://notsem.sos.state.or.us,,,,,
Secretary of State,Klamath Falls basics notary public seminar,Free training to become a notary,09/06/2018 09:00:00 AM,09/06/2018 12:00:00 PM,Oregon,"Brush up your notary knowledge and get the answers to your questions by attending a seminar for current and future notaries public. This seminar is a comprehensive and thorough examination of notary basics: purpose, responsibilities and liabilities of a notary; how to notarize; notary certificates and the notary journal. What's more, this is your chance to talk to the state agency that regulates notaries, and participate in lively discussions about procedures, practices, and notary law.",,,,http://notsem.sos.state.or.us,,,,,
Secretary of State,Klamath Falls advanced notary public seminar,Free advanced training for current notaries ONLY,09/06/2018 01:30:00 PM,09/06/2018 04:30:00 PM,Oregon,"Advanced notary public seminars are appropriate for those who are experienced, commissioned notaries. They do not meet the training qualifications for a notary application and will not help you to pass the exam. These advanced classes discuss employee notary issues, notario and elder abuse fraud, difficult certificates, and journaling witnesses, among other topics.",,,,http://notsem.sos.state.or.us,,,,,
Governor's Office,Governor's Marketplace | Central Oregon,Connect to public contracting and business resources at Governor’s Marketplace,09/12/2018 08:00:00 AM,09/12/2018 03:00:00 PM,OR,"2018 Governor’s Marketplace | Central Oregon (Redmond). We have partnered with the Secretary of State, Department of Administrative Services and the Certification Office for Business Inclusion and Diversity, to bring opportunities for businesses to meet directly with procurement professionals from state, federal, private and non-profit organizations who will share tips, tools, resources and strategies to aid in business growth, more successfully navigate contracting processes and nurture ongoing relationships. Date: September 12, 2018 Time: 8:00am to 3:00pm (Check in begins at 7:30am) Location: Central Oregon Community College-Redmond Technology Education Center, 2324 SE College Loop, Redmond, OR 97756. Earn CE Credits. Through our partnership with CCB, Contractors can now earn up to 4 CE credits for attending this event. If you only attend certain portions, your earned CE credits will reflect the hours of participation",Ruth Miles,844-469-5512,Ruth.Miles@oregon.gov,https://www.eventbrite.com/e/connect-to-public-contracting-opportunities-business-resources-at-governors-marketplace-central-tickets-45664357322,,"2324 SE College Loop
Redmond, OR 97756", Redmond,Business Owners,09/07/2018 05:00:00 PM
Secretary of State,Gresham advanced notary public seminar,Free advanced training for current notaries ONLY,10/18/2018 09:00:00 AM,10/18/2018 12:00:00 PM,Oregon,"Advanced notary public seminars are appropriate for those who are experienced, commissioned notaries. They do not meet the training qualifications for a notary application and will not help you to pass the exam. These advanced classes discuss employee notary issues, notario and elder abuse fraud, difficult certificates, and journaling witnesses, among other topics.",,,,http://notsem.sos.state.or.us,,,,,
Governor's Office,Governor's Marketplace | Central Oregon Edition,"2018 Governor’s Marketplace | Central Oregon/Redmond. We have partnered with the Secretary of State, Department of Administrative Services and the Certification Office for Business Inclusion and Diversity, to bring opportunities for businesses to meet directly with procurement professionals from state, federal, private and non-profit organizations who will share tips, tools, resources and strategies to aid in business growth, more successfully navigate contracting processes and nurture ongoing relationships.Free CE credits for construction contractors",09/12/2018 08:00:00 AM,09/12/2018 03:00:00 PM,OR,,Ruth Miles,844-469-5512,ruth.miles@oregon.gov,https://www.eventbrite.com/e/connect-to-public-contracting-opportunities-business-resources-at-governors-marketplace-central-tickets-45664357322,,2324 SE College Loop,,,
Secretary of State,Eugene advanced notary pubic seminar,Free advanced training for current notaries ONLY,09/12/2018 09:00:00 AM,09/12/2018 12:00:00 PM,Oregon,"Advanced notary public seminars are appropriate for those who are experienced, commissioned notaries. They do not meet the training qualifications for a notary application and will not help you to pass the exam. These advanced classes discuss employee notary issues, notario and elder abuse fraud, difficult certificates, and journaling witnesses, among other topics.",,,,http://notsem.sos.state.or.us,,,,,
Governor's Office,Governor's Marketplace,Connect to Public Contracting & Business Resources at Governor's Marketplace,09/13/2018 07:30:00 AM,09/13/2018 01:00:00 PM,OR,"2018 Governor’s Marketplace | (Harney County) Burns OR

We have partnered with the Secretary of State, Department of Administrative Services and the Certification Office for Business Inclusion and Diversity, to bring opportunities for businesses to meet directly with procurement professionals from state, federal, private and non-profit organizations who will share tips, tools, resources and strategies to aid in business growth, more successfully navigate contracting processes and nurture ongoing relationships.

Date: September 13, 2018

Time: 8:00am to 1:30pm (Check in begins at 7:30am)

Location: Harney County Community Center, 484 N. Broadway, Burns OR 97720

NEW! Earn CE Credits. Through our partnership with CCB, Contractors can now earn up to 4 CE credits for attending this event. If you only attend certain portions, your earned CE credits will reflect the hours of participation
",Eloisa Miller,,eloisa.miller@oregon.gov,Eventbrite Registration (https://www.eventbrite.com/e/connect-to-public-contracting-business-resources-at-governors-marketplace-burns-or-tickets-45110658193?aff=es2),,"484 N. Broadway
Burns, OR 97720", Burns,,
Secretary of State,Coos Bay basics notary public seminar,Free training to become a notary,09/13/2018 09:00:00 AM,09/13/2018 12:00:00 PM,Oregon,"Brush up your notary knowledge and get the answers to your questions by attending a seminar for current and future notaries public. This seminar is a comprehensive and thorough examination of notary basics: purpose, responsibilities and liabilities of a notary; how to notarize; notary certificates and the notary journal. What's more, this is your chance to talk to the state agency that regulates notaries, and participate in lively discussions about procedures, practices, and notary law.",,,,http://notsem.sos.state.or.us,,,,,
Secretary of State,Enterprise basics notary public seminar,Free training to become a notary,10/02/2018 09:00:00 AM,10/02/2018 12:00:00 PM,Oregon,"Brush up your notary knowledge and get the answers to your questions by attending a seminar for current and future notaries public. This seminar is a comprehensive and thorough examination of notary basics: purpose, responsibilities and liabilities of a notary; how to notarize; notary certificates and the notary journal. What's more, this is your chance to talk to the state agency that regulates notaries, and participate in lively discussions about procedures, practices, and notary law.",,,,http://notsem.sos.state.or.us,,,,,
,Salem Capitol Connections,Want to do business with state government? This is the spot!,10/03/2018 07:30:00 AM,10/30/2018 09:00:00 AM,Oregon,Learn how the Small Business Advocates can help you!,Ruth Miles,,Business.sos@oregon.gov,,,"626 High Street
Salem, OR", Salem,Business Owners,
Secretary of State,Bend advanced notary public seminar,Free advanced training for current notaries ONLY,10/04/2018 09:00:00 AM,10/04/2018 12:00:00 PM,Oregon,"Advanced notary public seminars are appropriate for those who are experienced, commissioned notaries. They do not meet the training qualifications for a notary application and will not help you to pass the exam. These advanced classes discuss employee notary issues, notario and elder abuse fraud, difficult certificates, and journaling witnesses, among other topics.",,,,http://notsem.sos.state.or.us,,,,,
Governor's Office,Governor's Marketplace | Linn/Benton Counties,Connect to contracting and business resources; CCB-licensed contractors earn free CE credits!,10/17/2018 07:30:00 AM,10/17/2018 02:00:00 PM,Oregon,"A multi-disciplinary, multi-agency team provides opportunities for businesses to meet directly with procurement professionals from state, federal, private and non-profit organizations who will share tips, tools, resources and strategies to aid in business growth, more successfully navigate contracting processes and nurture ongoing relationships.",Ruth Miles,1-844-469-5512,Business.SOS@oregon.gov,https://www.eventbrite.com/e/connect-to-public-contracting-business-resources-at-governors-marketplace-albany-or-tickets-48045949729,,"6500 Pacifi Blvd. SW
Albany, OR 97321", Albany,"Minority, Women, Emerging Small Businesses",10/11/2018 05:00:00 PM
Secretary of State,Portland basics notary public seminar,Free training to become a notary,10/17/2018 09:00:00 AM,10/17/2018 12:00:00 PM,Oregon,"Advanced notary public seminars are appropriate for those who are experienced, commissioned notaries. They do not meet the training qualifications for a notary application and will not help you to pass the exam. These advanced classes discuss employee notary issues, notario and elder abuse fraud, difficult certificates, and journaling witnesses, among other topics.",,,,http://notsem.sos.state.or.us,,,,,
,Financing your Cash Flow for Growth,Ascent Funding/Metro seminar,11/29/2018 12:00:00 PM,11/29/2018 01:30:00 PM,Oregon,Seminar: Do you want to grow your business but have concerns about the cash demands associated with taking on bigger projects?,Marcy Newton,5035488494,mnewton@ascent-funding.org,Seminar: financing your business (https://ascent-funding.org/community/events/),,"2420 NE Sandy Blvd
Portland, OR 97232", Portland,Small Businesses,11/29/2018 12:00:00 PM
Governor's Office,Governor's Marketplace | Lane County,Connect to contracting and business resources; CCB-licensed contractors earn free CE credits!,10/19/2018 07:30:00 AM,10/19/2018 02:00:00 PM,Oregon,"A multi-disciplinary, multi-agency team provides opportunities for businesses to meet directly with procurement professionals from state, federal, private and non-profit organizations who will share tips, tools, resources and strategies to aid in business growth, more successfully navigate contracting processes and nurture ongoing relationships.",Ruth Miles,1-844-469-5512,Business.SOS@oregon.gov,https://www.eventbrite.com/e/public-contracting-business-resources-at-governors-marketplace-eugene-or-tickets-48626046815,,"101 W. 10th Ave.
Eugene, OR 97401", Eugene,"Minority, Women, Emerging Small Businesses",10/11/2018 05:00:00 PM
Secretary of State,Salem basics notary public seminar,Free training to become a notary,10/23/2018 09:00:00 AM,10/23/2018 12:00:00 PM,Oregon,"Brush up your notary knowledge and get the answers to your questions by attending a seminar for current and future notaries public. This seminar is a comprehensive and thorough examination of notary basics: purpose, responsibilities and liabilities of a notary; how to notarize; notary certificates and the notary journal. What's more, this is your chance to talk to the state agency that regulates notaries, and participate in lively discussions about procedures, practices, and notary law.",,,,http://notsem.sos.state.or.us,,,,,
Governor's Office,Governor's Marketplace | Douglas County,Connect to contracting and business resources; CCB-licensed contractors earn free CE credits!,10/25/2018 07:30:00 AM,10/25/2018 02:00:00 PM,Oregon,"A multi-disciplinary, multi-agency team provides opportunities for businesses to meet directly with procurement professionals from state, federal, private and non-profit organizations who will share tips, tools, resources and strategies to aid in business growth, more successfully navigate contracting processes and nurture ongoing relationships.",Ruth Miles,1-844-469-5512,Business.SOS@oregon.gov,https://www.eventbrite.com/e/connect-to-public-contracting-business-resources-at-governors-marketplace-roseburg-or-tickets-48044151350,,"1140 Umpqua College Rd.
Roseburg, OR 97470", Roseburg,"Minority, Women, Emerging Small Businesses",10/17/2018 05:00:00 PM
Secretary of State,Lake Oswego basics notary public seminar,Free training to become a notary,10/25/2018 09:00:00 AM,10/25/2018 12:00:00 PM,Oregon,"Brush up your notary knowledge and get the answers to your questions by attending a seminar for current and future notaries public. This seminar is a comprehensive and thorough examination of notary basics: purpose, responsibilities and liabilities of a notary; how to notarize; notary certificates and the notary journal. What's more, this is your chance to talk to the state agency that regulates notaries, and participate in lively discussions about procedures, practices, and notary law.",,,,http://notsem.sos.state.or.us,,,,,
,Rogue Valley Business Resource Forum,Register for FREE There is no other event in the Rogue Valley that brings together representatives from all over Oregon to answer your questions,10/26/2018 07:00:00 AM,10/26/2018 04:30:00 PM,OR,"Get free consultations with representatives from the State of Oregon and local banking, insurance, government, and trade organizations; learn how to access public agency contracting through The Governor’s Marketplace; get business tips from experienced entrepreneurs; attend seminars that cover up-to-date topics for all stages of your business; learn about available resources to help your business thrive; network with other entrepreneurs",,,,http://roguebizforum.com/,,"101 S. Bartlett Street
Medford, OR 97501", Medford,Small Businesses,10/25/2018 12:00:00 PM
Secretary of State,McMinnville basics notary public seminar,Free training to become a notary,11/01/2018 01:00:00 PM,11/01/2018 04:00:00 PM,Oregon,"Brush up your notary knowledge and get the answers to your questions by attending a seminar for current and future notaries public. This seminar is a comprehensive and thorough examination of notary basics: purpose, responsibilities and liabilities of a notary; how to notarize; notary certificates and the notary journal. What's more, this is your chance to talk to the state agency that regulates notaries, and participate in lively discussions about procedures, practices, and notary law.",,,,http://notsem.sos.state.or.us,,,,,
Secretary of State,Corvallis basics notary public seminar,Free training to become a notary,11/07/2018 09:00:00 AM,11/07/2018 12:00:00 PM,Oregon,"Brush up your notary knowledge and get the answers to your questions by attending a seminar for current and future notaries public. This seminar is a comprehensive and thorough examination of notary basics: purpose, responsibilities and liabilities of a notary; how to notarize; notary certificates and the notary journal. What's more, this is your chance to talk to the state agency that regulates notaries, and participate in lively discussions about procedures, practices, and notary law.",,,,http://notsem.sos.state.or.us,,,,,
Secretary of State,Albany advanced notary public seminar,Free advanced training for current notaries ONLY,11/08/2018 09:00:00 AM,11/08/2018 12:00:00 PM,Oregon,"Advanced notary public seminars are appropriate for those who are experienced, commissioned notaries. They do not meet the training qualifications for a notary application and will not help you to pass the exam. These advanced classes discuss employee notary issues, notario and elder abuse fraud, difficult certificates, and journaling witnesses, among other topics.",,,,http://notsem.sos.state.or.us,,,,,
,Making Loans that Banks Can't,webinar,11/16/2018 12:00:00 PM,11/16/2018 01:00:00 PM,OR,Find out how to secure funding for your business after you've been turned down for a bank loan. ,,15032273950,mnewton@ascent-funding.org,webinar (https://ascent-funding.org/community/events/),,"2420 NE Sandy Blvd
Portland, OR 97232",,Business Owners,11/16/2018 12:00:00 PM
Secretary of State,Beaverton basics notary public seminar,Free training to become a notary,11/28/2018 01:00:00 PM,11/28/2018 04:00:00 PM,Oregon,"Brush up your notary knowledge and get the answers to your questions by attending a seminar for current and future notaries public. This seminar is a comprehensive and thorough examination of notary basics: purpose, responsibilities and liabilities of a notary; how to notarize; notary certificates and the notary journal. What's more, this is your chance to talk to the state agency that regulates notaries, and participate in lively discussions about procedures, practices, and notary law.",,,,http://notsem.sos.state.or.us,,,,,
Secretary of State,Lebanon basics notary public seminar,Free training to become a notary,12/04/2018 01:00:00 PM,12/04/2018 04:00:00 PM,Oregon,"Brush up your notary knowledge and get the answers to your questions by attending a seminar for current and future notaries public. This seminar is a comprehensive and thorough examination of notary basics: purpose, responsibilities and liabilities of a notary; how to notarize; notary certificates and the notary journal. What's more, this is your chance to talk to the state agency that regulates notaries, and participate in lively discussions about procedures, practices, and notary law.",,,,http://notsem.sos.state.or.us,,,,,
Secretary of State,McMinnville advanced notary public seminar,Free advanced training for current notaries ONLY,12/05/2018 01:00:00 PM,12/05/2018 04:00:00 PM,Oregon,"Advanced notary public seminars are appropriate for those who are experienced, commissioned notaries. They do not meet the training qualifications for a notary application and will not help you to pass the exam. These advanced classes discuss employee notary issues, notario and elder abuse fraud, difficult certificates, and journaling witnesses, among other topics.",,,,http://notsem.sos.state.or.us,,,,,
Secretary of State,Monmouth basics notary public seminar,Free training to become a notary,12/11/2018 01:00:00 PM,12/11/2018 04:00:00 PM,Oregon,"Brush up your notary knowledge and get the answers to your questions by attending a seminar for current and future notaries public. This seminar is a comprehensive and thorough examination of notary basics: purpose, responsibilities and liabilities of a notary; how to notarize; notary certificates and the notary journal. What's more, this is your chance to talk to the state agency that regulates notaries, and participate in lively discussions about procedures, practices, and notary law.",,,,http://notsem.sos.state.or.us,,,,,
Secretary of State,Eugene basics notary seminar,Free training to become a notary,12/12/2018 01:00:00 PM,12/12/2018 04:00:00 PM,Oregon,"Brush up your notary knowledge and get the answers to your questions by attending a seminar for current and future notaries public. This seminar is a comprehensive and thorough examination of notary basics: purpose, responsibilities and liabilities of a notary; how to notarize; notary certificates and the notary journal. What's more, this is your chance to talk to the state agency that regulates notaries, and participate in lively discussions about procedures, practices, and notary law.",,,,http://notsem.sos.state.or.us,,,,,
Secretary of State,Wilsonville basics notary public seminar,Free training to become a notary,12/19/2018 01:00:00 PM,12/19/2018 04:00:00 PM,Oregon,"Brush up your notary knowledge and get the answers to your questions by attending a seminar for current and future notaries public. This seminar is a comprehensive and thorough examination of notary basics: purpose, responsibilities and liabilities of a notary; how to notarize; notary certificates and the notary journal. What's more, this is your chance to talk to the state agency that regulates notaries, and participate in lively discussions about procedures, practices, and notary law.",,,,http://notsem.sos.state.or.us,,,,,
Secretary of State,Canby Advanced Notary Seminar,Free advanced training for current notaries ONLY,01/09/2019 01:00:00 PM,01/09/2019 04:00:00 PM,OR,"Advanced notary public seminars are appropriate for those who are experienced, commissioned notaries. They do not meet the training qualifications for a notary application and will not help you to pass the exam. These advanced classes discuss employee notary issues, notario and elder abuse fraud, difficult certificates, and journaling witnesses, among other topics.",,,,http://notsem.sos.state.or.us,,,,,
Secretary of State,Salem Basics Notary Seminar,Free training to become a notary,01/10/2019 01:00:00 PM,01/10/2019 04:00:00 PM,OR,"Brush up your notary knowledge and get the answers to your questions by attending a seminar for current and future notaries public. This seminar is a comprehensive and thorough examination of notary basics: purpose, responsibilities and liabilities of a notary; how to notarize; notary certificates and the notary journal. What's more, this is your chance to talk to the state agency that regulates notaries, and participate in lively discussions about procedures, practices, and notary law.",,,,http://notsem.sos.state.or.us,,,,,
Secretary of State,Portland Advanced Notary Seminar,Free advanced training for current notaries ONLY,01/23/2019 01:00:00 PM,01/23/2019 04:00:00 PM,OR,"Advanced notary public seminars are appropriate for those who are experienced, commissioned notaries. They do not meet the training qualifications for a notary application and will not help you to pass the exam. These advanced classes discuss employee notary issues, notario and elder abuse fraud, difficult certificates, and journaling witnesses, among other topics.",,,,http://notsem.sos.state.or.us,,,,,
Secretary of State,Beaverton Advanced Notary Seminar,Free advanced training for current notaries ONLY,01/30/2019 01:00:00 PM,01/30/2019 04:00:00 PM,OR,"Advanced notary public seminars are appropriate for those who are experienced, commissioned notaries. They do not meet the training qualifications for a notary application and will not help you to pass the exam. These advanced classes discuss employee notary issues, notario and elder abuse fraud, difficult certificates, and journaling witnesses, among other topics.",,,,http://notsem.sos.state.or.us,,,,,
Secretary of State,Gresham Basics Notary Seminar,Free training to become a notary,02/05/2019 01:00:00 PM,02/05/2019 04:00:00 PM,OR,"Brush up your notary knowledge and get the answers to your questions by attending a seminar for current and future notaries public. This seminar is a comprehensive and thorough examination of notary basics: purpose, responsibilities and liabilities of a notary; how to notarize; notary certificates and the notary journal. What's more, this is your chance to talk to the state agency that regulates notaries, and participate in lively discussions about procedures, practices, and notary law.",,,,http://notsem.sos.state.or.us,,,,,
Secretary of State,Eugene Advanced Notary Seminar,Free advanced training for current notaries ONLY,02/12/2019 01:00:00 PM,02/12/2019 04:00:00 PM,OR,"Advanced notary public seminars are appropriate for those who are experienced, commissioned notaries. They do not meet the training qualifications for a notary application and will not help you to pass the exam. These advanced classes discuss employee notary issues, notario and elder abuse fraud, difficult certificates, and journaling witnesses, among other topics.",,,,http://notsem.sos.state.or.us,,,,,
Secretary of State,Portland Basics Notary Seminar,Free training to become a notary,02/13/2019 01:00:00 PM,02/13/2019 04:00:00 PM,OR,"Brush up your notary knowledge and get the answers to your questions by attending a seminar for current and future notaries public. This seminar is a comprehensive and thorough examination of notary basics: purpose, responsibilities and liabilities of a notary; how to notarize; notary certificates and the notary journal. What's more, this is your chance to talk to the state agency that regulates notaries, and participate in lively discussions about procedures, practices, and notary law.",,,,http://notsem.sos.state.or.us,,,,,
Secretary of State,Winter Career Expo,Career Fair,02/20/2019 11:00:00 AM,02/20/2019 03:00:00 PM,OR,"Students at Oregon State are doers. Problem solvers. Communicators. If you’re looking for some of the best and brightest students in the country (and who isn’t?), you won’t want to miss the Oregon State Career Expo. As a leading research institution with land, sun, space, and sea grants, our students are already innovators in their chosen fields. This career fair attracts approximately 900 students seeking jobs and internships in STEM fields, the arts, humanities, business, and healthcare.",,,,https://app.joinhandshake.com/career_fairs/6316/employer_preview,,,,,
Secretary of State,Independence Advanced Notary Seminar,Free advanced training for current notaries ONLY,02/21/2019 01:00:00 PM,02/21/2019 04:00:00 PM,OR,"Advanced notary public seminars are appropriate for those who are experienced, commissioned notaries. They do not meet the training qualifications for a notary application and will not help you to pass the exam. These advanced classes discuss employee notary issues, notario and elder abuse fraud, difficult certificates, and journaling witnesses, among other topics.",,,,http://notsem.sos.state.or.us,,,,,
Secretary of State,Seaside Basics Notary Seminar,Free training to become a notary,03/06/2019 09:00:00 AM,03/06/2019 12:00:00 PM,OR,"Brush up your notary knowledge and get the answers to your questions by attending a seminar for current and future notaries public. This seminar is a comprehensive and thorough examination of notary basics: purpose, responsibilities and liabilities of a notary; how to notarize; notary certificates and the notary journal. What's more, this is your chance to talk to the state agency that regulates notaries, and participate in lively discussions about procedures, practices, and notary law.",,,,http://notsem.sos.state.or.us,,,,,
Secretary of State,Advanced Notary Seminar,Free advanced training for current notaries ONLY,03/07/2019 09:00:00 AM,03/07/2019 12:00:00 PM,or,"Advanced notary public seminars are appropriate for those who are experienced, commissioned notaries. They do not meet the training qualifications for a notary application and will not help you to pass the exam. These advanced classes discuss employee notary issues, notario and elder abuse fraud, difficult certificates, and journaling witnesses, among other topics.",,,,http://notsem.sos.state.or.us,,,,,
Secretary of State,Salem Advanced Notary Seminar,Free advanced training for current notaries ONLY,03/11/2019 09:00:00 AM,03/11/2019 12:00:00 PM,OR,"Advanced notary public seminars are appropriate for those who are experienced, commissioned notaries. They do not meet the training qualifications for a notary application and will not help you to pass the exam. These advanced classes discuss employee notary issues, notario and elder abuse fraud, difficult certificates, and journaling witnesses, among other topics.",,,,http://notsem.sos.state.or.us,,,,,
Secretary of State,Corvallis Advanced Notary Seminar,Free advanced training for current notaries ONLY,03/14/2019 09:00:00 AM,03/14/2019 12:00:00 PM,OR,"Advanced notary public seminars are appropriate for those who are experienced, commissioned notaries. They do not meet the training qualifications for a notary application and will not help you to pass the exam. These advanced classes discuss employee notary issues, notario and elder abuse fraud, difficult certificates, and journaling witnesses, among other topics.",,,,http://notsem.sos.state.or.us,,,,,
Secretary of State,Grants Pass Basics Notary Seminar,Free training to become a notary,03/26/2019 09:00:00 AM,03/26/2019 12:00:00 PM,OR,"Brush up your notary knowledge and get the answers to your questions by attending a seminar for current and future notaries public. This seminar is a comprehensive and thorough examination of notary basics: purpose, responsibilities and liabilities of a notary; how to notarize; notary certificates and the notary journal. What's more, this is your chance to talk to the state agency that regulates notaries, and participate in lively discussions about procedures, practices, and notary law.",,,,http://notsem.sos.state.or.us,,,,,
Secretary of State,Medford Advanced Notary Seminar,Free advanced training for current notaries ONLY,03/27/2019 09:00:00 AM,03/27/2019 12:00:00 PM,OR,"Advanced notary public seminars are appropriate for those who are experienced, commissioned notaries. They do not meet the training qualifications for a notary application and will not help you to pass the exam. These advanced classes discuss employee notary issues, notario and elder abuse fraud, difficult certificates, and journaling witnesses, among other topics.",,,,http://notsem.sos.state.or.us,,,,,
Secretary of State,Roseburg Basics Notary Seminar,Free training to become a notary,03/28/2019 09:00:00 AM,03/28/2019 12:00:00 PM,OR,"Advanced notary public seminars are appropriate for those who are experienced, commissioned notaries. They do not meet the training qualifications for a notary application and will not help you to pass the exam. These advanced classes discuss employee notary issues, notario and elder abuse fraud, difficult certificates, and journaling witnesses, among other topics.",,,,http://notsem.sos.state.or.us,,,,,
Secretary of State,Eugene Basics Notary Seminar,Free training to become a notary,04/02/2019 09:00:00 AM,04/02/2019 12:00:00 PM,OR,"Brush up your notary knowledge and get the answers to your questions by attending a seminar for current and future notaries public. This seminar is a comprehensive and thorough examination of notary basics: purpose, responsibilities and liabilities of a notary; how to notarize; notary certificates and the notary journal. What's more, this is your chance to talk to the state agency that regulates notaries, and participate in lively discussions about procedures, practices, and notary law.",,,,http://notsem.sos.state.or.us,,,,,
Secretary of State,Lake Oswego Advanced Notary Seminar,Free advanced training for current notaries ONLY,04/04/2019 09:00:00 AM,04/04/2019 12:00:00 PM,OR,"Advanced notary public seminars are appropriate for those who are experienced, commissioned notaries. They do not meet the training qualifications for a notary application and will not help you to pass the exam. These advanced classes discuss employee notary issues, notario and elder abuse fraud, difficult certificates, and journaling witnesses, among other topics.",,,,http://notsem.sos.state.or.us,,,,,
Secretary of State,Newport Advanced Notary Seminar,Free advanced training for current notaries ONLY,04/10/2019 09:00:00 AM,04/10/2019 12:00:00 PM,OR,"Advanced notary public seminars are appropriate for those who are experienced, commissioned notaries. They do not meet the training qualifications for a notary application and will not help you to pass the exam. These advanced classes discuss employee notary issues, notario and elder abuse fraud, difficult certificates, and journaling witnesses, among other topics.",,,,http://notsem.sos.state.or.us,,,,,
Secretary of State,Tillamook Basics Notary Seminar,Free training to become a notary,04/11/2019 09:00:00 AM,04/11/2019 12:00:00 PM,OR,"Brush up your notary knowledge and get the answers to your questions by attending a seminar for current and future notaries public. This seminar is a comprehensive and thorough examination of notary basics: purpose, responsibilities and liabilities of a notary; how to notarize; notary certificates and the notary journal. What's more, this is your chance to talk to the state agency that regulates notaries, and participate in lively discussions about procedures, practices, and notary law.",,,,http://notsem.sos.state.or.us,,,,,
Secretary of State,Milwaukie Basics Notary Seminar,Free training to become a notary,04/18/2019 09:00:00 AM,04/18/2019 12:00:00 PM,OR,"Brush up your notary knowledge and get the answers to your questions by attending a seminar for current and future notaries public. This seminar is a comprehensive and thorough examination of notary basics: purpose, responsibilities and liabilities of a notary; how to notarize; notary certificates and the notary journal. What's more, this is your chance to talk to the state agency that regulates notaries, and participate in lively discussions about procedures, practices, and notary law.",,,,http://notsem.sos.state.or.us,,,,,
Secretary of State,Wilsonville Advanced Notary Seminar,Free advanced training for current notaries ONLY,04/23/2019 09:00:00 AM,04/23/2019 12:00:00 PM,OR,"Advanced notary public seminars are appropriate for those who are experienced, commissioned notaries. They do not meet the training qualifications for a notary application and will not help you to pass the exam. These advanced classes discuss employee notary issues, notario and elder abuse fraud, difficult certificates, and journaling witnesses, among other topics.",,,,http://notsem.sos.state.or.us,,,,,
Secretary of State,PCC Job Fair,PCC Job Fair at Cascade Campus,04/30/2019 11:00:00 AM,04/30/2019 03:00:00 PM,OR,"The 21st Annual Cascade Job Fair is an outstanding opportunity for employers, students and community members. The fair draws a diverse pool of applicants and a broad range of employers from many industries. Past fairs attract over 90 employers and over 1000 job seekers.",,,,https://www.pcc.edu/job-fairs/cascade/,,,,,
Secretary of State,Gresham Advanced Notary Seminar,Free training to become a notary,05/01/2019 09:00:00 AM,03/01/2019 12:00:00 PM,OR,"Advanced notary public seminars are appropriate for those who are experienced, commissioned notaries. They do not meet the training qualifications for a notary application and will not help you to pass the exam. These advanced classes discuss employee notary issues, notario and elder abuse fraud, difficult certificates, and journaling witnesses, among other topics.",,,,http://notsem.sos.state.or.us,,,,,
Secretary of State,Lincoln City Basics Notary Seminar,Free training to become a notary,05/14/2019 09:00:00 AM,05/14/2019 12:00:00 PM,OR,"Brush up your notary knowledge and get the answers to your questions by attending a seminar for current and future notaries public. This seminar is a comprehensive and thorough examination of notary basics: purpose, responsibilities and liabilities of a notary; how to notarize; notary certificates and the notary journal. What's more, this is your chance to talk to the state agency that regulates notaries, and participate in lively discussions about procedures, practices, and notary law.",,,,http://notsem.sos.state.or.us,,,,,
Secretary of State,Coos Bay Advanced Notary Seminar,Free training to become a notary,05/15/2019 09:00:00 AM,05/15/2019 12:00:00 PM,OR,"Advanced notary public seminars are appropriate for those who are experienced, commissioned notaries. They do not meet the training qualifications for a notary application and will not help you to pass the exam. These advanced classes discuss employee notary issues, notario and elder abuse fraud, difficult certificates, and journaling witnesses, among other topics.",,,,http://notsem.sos.state.or.us,,,,,
Secretary of State,Salem Basics Notary Seminar,Free training to become a notary,05/20/2019 09:00:00 AM,05/20/2019 12:00:00 PM,OR,"Brush up your notary knowledge and get the answers to your questions by attending a seminar for current and future notaries public. This seminar is a comprehensive and thorough examination of notary basics: purpose, responsibilities and liabilities of a notary; how to notarize; notary certificates and the notary journal. What's more, this is your chance to talk to the state agency that regulates notaries, and participate in lively discussions about procedures, practices, and notary law.",,,,http://notsem.sos.state.or.us,,,,,
Secretary of State,Redmond Basics Notary Seminar,Free training to become a notary,05/22/2019 09:00:00 AM,05/22/2019 12:00:00 PM,OR,"Brush up your notary knowledge and get the answers to your questions by attending a seminar for current and future notaries public. This seminar is a comprehensive and thorough examination of notary basics: purpose, responsibilities and liabilities of a notary; how to notarize; notary certificates and the notary journal. What's more, this is your chance to talk to the state agency that regulates notaries, and participate in lively discussions about procedures, practices, and notary law.",,,,http://notsem.sos.state.or.us,,,,,
Secretary of State,The Dalles Advanced Notary Seminar,Free advanced training for current notaries ONLY,05/23/2019 09:00:00 AM,05/23/2019 12:00:00 PM,OR,"Advanced notary public seminars are appropriate for those who are experienced, commissioned notaries. They do not meet the training qualifications for a notary application and will not help you to pass the exam. These advanced classes discuss employee notary issues, notario and elder abuse fraud, difficult certificates, and journaling witnesses, among other topics.",,,,http://notsem.sos.state.or.us,,,,,
Secretary of State,Baker City Advanced Notary Seminar,Free advanced training for current notaries ONLY,06/05/2019 09:00:00 AM,06/05/2019 12:00:00 PM,OR,"Advanced notary public seminars are appropriate for those who are experienced, commissioned notaries. They do not meet the training qualifications for a notary application and will not help you to pass the exam. These advanced classes discuss employee notary issues, notario and elder abuse fraud, difficult certificates, and journaling witnesses, among other topics.",,,,http://notsem.sos.state.or.us,,,,,
Secretary of State,Redmond Advanced Nortary Seminar,Free advanced training for current notaries ONLY,06/11/2019 09:00:00 AM,06/11/2019 12:00:00 PM,OR,"Advanced notary public seminars are appropriate for those who are experienced, commissioned notaries. They do not meet the training qualifications for a notary application and will not help you to pass the exam. These advanced classes discuss employee notary issues, notario and elder abuse fraud, difficult certificates, and journaling witnesses, among other topics.",,,,http://notsem.sos.state.or.us,,,,,
Secretary of State,Beaverton Basics Notary Seminar,Free training to become a notary,06/12/2019 09:00:00 AM,06/12/2019 12:00:00 PM,OR,"Brush up your notary knowledge and get the answers to your questions by attending a seminar for current and future notaries public. This seminar is a comprehensive and thorough examination of notary basics: purpose, responsibilities and liabilities of a notary; how to notarize; notary certificates and the notary journal. What's more, this is your chance to talk to the state agency that regulates notaries, and participate in lively discussions about procedures, practices, and notary law.",,,,http://notsem.sos.state.or.us,,,,,
Secretary of State,Canby Basics Notary Seminar,Free training to become a notary,06/18/2019 09:00:00 AM,06/18/2019 12:00:00 PM,OR,"Brush up your notary knowledge and get the answers to your questions by attending a seminar for current and future notaries public. This seminar is a comprehensive and thorough examination of notary basics: purpose, responsibilities and liabilities of a notary; how to notarize; notary certificates and the notary journal. What's more, this is your chance to talk to the state agency that regulates notaries, and participate in lively discussions about procedures, practices, and notary law.",,,,http://notsem.sos.state.or.us,,,,,
Secretary of State,Hood River Basics Notary Seminar,Free training to become a notary,06/25/2019 09:00:00 AM,06/25/2019 12:00:00 PM,OR,"Brush up your notary knowledge and get the answers to your questions by attending a seminar for current and future notaries public. This seminar is a comprehensive and thorough examination of notary basics: purpose, responsibilities and liabilities of a notary; how to notarize; notary certificates and the notary journal. What's more, this is your chance to talk to the state agency that regulates notaries, and participate in lively discussions about procedures, practices, and notary law.",,,,http://notsem.sos.state.or.us,,,,,
Secretary of State,La Grande Basics Notary Seminar,Free training to become a notary,06/26/2019 09:00:00 AM,06/26/2019 12:00:00 PM,OR,"Brush up your notary knowledge and get the answers to your questions by attending a seminar for current and future notaries public. This seminar is a comprehensive and thorough examination of notary basics: purpose, responsibilities and liabilities of a notary; how to notarize; notary certificates and the notary journal. What's more, this is your chance to talk to the state agency that regulates notaries, and participate in lively discussions about procedures, practices, and notary law.",,,,http://notsem.sos.state.or.us,,,,,
Secretary of State,Ontario Advanced Notary Seminar,Free advanced training for current notaries ONLY,06/27/2019 09:00:00 AM,06/27/2019 12:00:00 PM,OR,"Advanced notary public seminars are appropriate for those who are experienced, commissioned notaries. They do not meet the training qualifications for a notary application and will not help you to pass the exam. These advanced classes discuss employee notary issues, notario and elder abuse fraud, difficult certificates, and journaling witnesses, among other topics.",,,,http://notsem.sos.state.or.us,,,,,
Secretary of State,Albany Basics Notary Seminar,Free training to become a notary,05/02/2019 09:00:00 AM,05/02/2019 12:00:00 PM,OR,"Brush up your notary knowledge and get the answers to your questions by attending a seminar for current and future notaries public. This seminar is a comprehensive and thorough examination of notary basics: purpose, responsibilities and liabilities of a notary; how to notarize; notary certificates and the notary journal. What's more, this is your chance to talk to the state agency that regulates notaries, and participate in lively discussions about procedures, practices, and notary law.",,,,http://notsem.sos.state.or.us/,,,,,
sec,,,,,,,,,,,,,,,
Secretary of State,Eugene Job Fair,Valley River Inn,03/12/2019 10:00:00 AM,03/12/2019 01:30:00 PM,OR,"This Job Fair offers great resources to job seekers who are looking to find a job or advance their career. It offers  pre-event training on how to get the most out of the Job Fair experience, as well as a mid-session workshop designed to empower job seekers in their search. It also offers advice on resumes, interviews, applications, etc.",,,,https://www.jobsnow.org/job-seekers,,,,,
Secretary of State,Albany Career Fair,LBCC Annual Career Fair is FREE and open to the public,04/17/2019 10:00:00 AM,04/17/2019 02:00:00 PM,OR,"The LBCC Career Fair is an Opportunity for students and community members to connect with local and regional employers, employment and staffing agencies to explore career opportunities and job openings all in one place. This event hosts approximately 100 businesses, both profit and non-profit, in a wide variety of industries, as well as highlights some LBCC programs and attracts over 600 students and community members seeking career and employment related information.  ",,,,https://www.linnbenton.edu/current-students/work/annual-career-fair.php,,,,,
Secretary of State,Pendleton Basics Notary Seminar,Free training to become a notary,06/04/2019 09:00:00 AM,06/04/2019 12:00:00 PM,OR,"Brush up your notary knowledge and get the answers to your questions by attending a seminar for current and future notaries public. This seminar is a comprehensive and thorough examination of notary basics: purpose, responsibilities and liabilities of a notary; how to notarize; notary certificates and the notary journal. What's more, this is your chance to talk to the state agency that regulates notaries, and participate in lively discussions about procedures, practices, and notary law.",,,,http://notsem.sos.state.or.us,,,,,
Secretary of State,Hermiston Advanced Notary Seminar,Free advanced training for current notaries ONLY,06/06/2019 09:00:00 AM,06/06/2019 12:00:00 PM,OR,"Advanced notary public seminars are appropriate for those who are experienced, commissioned notaries. They do not meet the training qualifications for a notary application and will not help you to pass the exam. These advanced classes discuss employee notary issues, notario and elder abuse fraud, difficult certificates, and journaling witnesses, among other topics.",,,,http://notsem.sos.state.or.us,,,,,
Secretary of State,Baker City Basics Notary Seminar,Free training to become a notary,04/24/2019 01:00:00 PM,04/24/2019 04:00:00 PM,Oregon,"Brush up your notary knowledge and get the answers to your questions by attending a seminar for current and future notaries public. This seminar is a comprehensive and thorough examination of notary basics: purpose, responsibilities and liabilities of a notary; how to notarize; notary certificates and the notary journal. What's more, this is your chance to talk to the state agency that regulates notaries, and participate in lively discussions about procedures, practices, and notary law.",,,,http://notsem.sos.state.or.us,,,,,
Secretary of State,Enterprise Basics Notary Seminar,Free training to become a notary,04/25/2019 09:00:00 AM,04/25/2019 12:00:00 PM,Oregon,"Brush up your notary knowledge and get the answers to your questions by attending a seminar for current and future notaries public. This seminar is a comprehensive and thorough examination of notary basics: purpose, responsibilities and liabilities of a notary; how to notarize; notary certificates and the notary journal. What's more, this is your chance to talk to the state agency that regulates notaries, and participate in lively discussions about procedures, practices, and notary law.",,,,http://notsem.sos.state.or.us,,,,,
Secretary of State,Enterprise Advanced Notary Seminar,Free advanced training for current notaries ONLY,04/25/2019 01:00:00 PM,04/25/2019 04:00:00 PM,Oregon,"Advanced notary public seminars are appropriate for those who are experienced, commissioned notaries. They do not meet the training qualifications for a notary application and will not help you to pass the exam. These advanced classes discuss employee notary issues, notario and elder abuse fraud, difficult certificates, and journaling witnesses, among other topics.",,,,http://notsem.sos.state.or.us,,,,,
,Salem Capitol Connections,Free networking meeting for businesses and nonprofits that want to sell to government,05/28/2019 07:30:00 AM,05/28/2019 09:00:00 AM,Oregon,"Want to diversify your revenue streams? Consider selling your goods or services to government. Here's your chance to meet up with resources, buyers, and opportunities.",Ruth Miles,1-844-469-5512,Business.SOS@oregon.gov,http://salemcapitolconnections.org/,,"626 High St NE
Salem, OR 97301",Salem,Business Owners,
,OAME Trade Show,"Free attendance, paid luncheon. Designed for purchasers and buyers from public and private organizations to network with Minority, Women, Emerging Small and Veteran owned businesses.",05/09/2019 10:00:00 AM,05/09/2019 03:00:00 PM,Oregon,Meet public and private purchasers who want to buy goods and/or services from local small businesses. Celebrate all things small business as part of #SmallBusinessWeek.,Suzanne,503-249-7744,Suzanne@oame.org,https://oame.org/tradeshow/,,"777 NE Martin Luther King Jr Blvd
Portland, OR 97232",Portland,"Minority, Women, Emerging Small Businesses",
,Salem Capitol Connections,Free networking meeting for businesses and nonprofits that want to sell to government,06/25/2019 07:30:00 AM,06/25/2019 09:00:00 AM,Oregon,"Want to diversify your revenue streams? Consider selling your goods or services to government. Here's your chance to meet up with resources, buyers, and opportunities.",Ruth Miles,1-844-469-5512,Business.SOS@oregon.gov,http://www.salemcapitolconnections.org,,"626 High St NE
Salem, OR 97301",Salem,Business Owners,
,Salem Capitol Connections,Free networking meeting for businesses and nonprofits that want to sell to government,07/30/2019 07:30:00 AM,07/30/2019 07:30:00 AM,Oregon,"Want to diversify your revenue streams? Consider selling your goods or services to government. Here's your chance to meet up with resources, buyers, and opportunities.",Ruth Miles,1-844-469-5512,Business.SOS@oregon.gov,http://www.salemcapitolconnections.org,,"626 High St NE
Salem, OR 97301",Salem,Business Owners,
,Salem Capitol Connections,Free networking meeting for businesses and nonprofits that want to sell to government,08/27/2019 07:30:00 AM,08/27/2019 09:00:00 AM,Oregon,"Want to diversify your revenue streams? Consider selling your goods or services to government. Here's your chance to meet up with resources, buyers, and opportunities.",Ruth Miles,1-844-469-5512,Business.SOS@oregon.gov,http://www.salemcapitolconnections.org,,"626 High St NE
Salem, OR 97301",Salem,Business Owners,
,Salem Capitol Connections-5th Anniversary Celebration!,Free networking meeting for businesses and nonprofits that want to sell to government,09/24/2019 07:30:00 AM,09/24/2019 09:30:00 AM,Oregon,"Come celebrate five incredible years of connecting small businesses and nonprofits with government contracts. Want to diversify your revenue streams? Consider selling your goods or services to government. Here's your chance to meet up with resources, buyers, and opportunities.",Ruth Miles,1-844-469-5512,Business.SOS@oregon.gov,http://www.salemcapitolconnections.org,,"626 High St NE
Salem, OR 97301",Salem,Business Owners,
